[{"OBJECT_NAME":"SKYKRAFT-4E","OBJECT_ID":"2025-154L","EPOCH":"2026-03-09T17:52:42.156768","MEAN_MOTION":14.96573469,"ECCENTRICITY":0.00042366,"INCLINATION":97.6795,"RA_OF_ASC_NODE":135.3397,"ARG_OF_PERICENTER":218.3459,"MEAN_ANOMALY":141.7462,"EPHEMERIS_TYPE":0,"CLASSIFICATION_TYPE":"U","NORAD_CAT_ID":65227,"ELEMENT_SET_NO":999,"REV_AT_EPOCH":3245,"BSTAR":0.00070463663,"MEAN_MOTION_DOT":7.969e-5,"MEAN_MOTION_DDOT":0},{"OBJECT_NAME":"NOAA 16 DEB","OBJECT_ID":"2000-055HK","EPOCH":"2026-03-09T11:22:55.184448","MEAN_MOTION":14.96713123,"ECCENTRICITY":0.00044813,"INCLINATION":98.9091,"RA_OF_ASC_NODE":257.3123,"ARG_OF_PERICENTER":226.904,"MEAN_ANOMALY":133.1803,"EPHEMERIS_TYPE":0,"CLASSIFICATION_TYPE":"U","NORAD_CAT_ID":41307,"ELEMENT_SET_NO":999,"REV_AT_EPOCH":53055,"BSTAR":0.0073865996,"MEAN_MOTION_DOT":0.00085329,"MEAN_MOTION_DDOT":0}]
